ARIANE 5 R/B            
1 28499U 04049H   25308.44663221  .00000978  00000+0  11478-3 0  9992
2 28499  98.2512 107.3634 0085509  37.6490 323.0667 14.84892962127203
CZ-2D R/B               
1 28738U 05024B   25308.61449362  .00023891  00000+0  41748-3 0  9991
2 28738  97.3666 315.1289 0008080 111.4545 248.7569 15.50626737120346
ALOS (DAICHI)           
1 28931U 06002A   25308.42545580  .00001818  00000+0  31638-3 0  9993
2 28931  98.1027 260.2007 0001487  52.0904 308.0436 14.69291192 55085
H-2A R/B                
1 28932U 06002B   25308.38681572  .00009707  00000+0  52633-3 0  9994
2 28932  98.2296  80.0432 0054983 307.6421  51.9826 15.13506171 75464
RESURS-DK 1             
1 29228U 06021A   25308.19502816  .00003119  00000+0  18816-3 0  9992
2 29228  69.9339 201.4233 0007348 290.0643  69.9731 15.11842146 68557
CZ-4B R/B               
1 29507U 06046C   25308.54201166  .00005367  00000+0  28460-3 0  9995
2 29507  97.5797 348.7868 0033936 343.5064  16.5061 15.15300621 41088
CZ-2C R/B               
1 31114U 07010B   25308.32183978  .00000142  00000+0  84486-4 0  9997
2 31114  98.3956  62.9110 0057964 299.2688  60.2703 14.20185857961922
COSMO-SKYMED 1          
1 31598U 07023A   25308.65176302  .00003509  00000+0  32352-3 0  9990
2 31598  97.8849 133.8099 0001142  91.7553 268.3799 14.95339232996205
COSMOS 2428             
1 31792U 07029A   25308.43668352 -.00000246  00000+0 -10638-3 0  9999
2 31792  70.9363 106.2938 0001854  99.5911 260.5419 14.12891367946405
SL-16 R/B               
1 31793U 07029B   25308.49431612  .00000031  00000+0  41124-4 0  9998
2 31793  70.9745  75.5476 0002249 258.1463 169.0385 14.14803407947663
KORONAS-FOTON           
1 33504U 09003A   25308.56219675  .00014223  00000+0  35566-3 0  9995
2 33504  82.4341  45.6189 0010693 243.9284 116.0861 15.39929896926464
CZ-2C R/B               
1 37731U 11030B   25308.49325159  .00001883  00000+0  24575-3 0  9997
2 37731  97.8346 263.4656 0054217  39.1540  76.8324 14.80689335771566
